NORAD_CAT_ID,OBJECT_NAME,OBJECT_TYPE,EPOCH,MEAN_MOTION,ECCENTRICITY,INCLINATION,RA_OF_ASC_NODE,ARG_OF_PERICENTER,MEAN_ANOMALY,BSTAR,MEAN_MOTION_DOT,MEAN_MOTION_DDOT,TLE_LINE0,TLE_LINE1,TLE_LINE2,SEMIMAJOR_AXIS,PERIOD,APOGEE,PERIGEE,DECAYED
56797.0,STARLINK-6058,PAYLOAD,2024-07-27 22:00:58,14.98325961,0.000297,70.0013,31.6502,269.813,90.2689,-3.1781e-05,-4.72e-06,0.0,0 STARLINK-6058,1 56797U 23078AG  24209.91733933 -.00000472  00000-0 -31781-4 0  9998,2 56797  70.0013  31.6502 0002970 269.8130  90.2689 14.98325961 64339,6950.205,96.107,574.135,570.006,0.0
56797.0,STARLINK-6058,PAYLOAD,2024-07-28 12:26:10,14.98333955,0.0002993,70.0005,30.1351,271.507,88.5747,-2.1833e-05,-3.54e-06,0.0,0 STARLINK-6058,1 56797U 23078AG  24210.51817448 -.00000354  00000-0 -21833-4 0  9996,2 56797  70.0005  30.1351 0002993 271.5070  88.5747 14.98333955 64689,6950.181,96.107,574.126,569.965,0.0
56797.0,STARLINK-6058,PAYLOAD,2024-07-28 22:02:58,14.98331603,0.0002929,70.0009,29.126,275.8813,84.2012,6.1637e-05,6.43e-06,0.0,0 STARLINK-6058,1 56797U 23078AG  24210.91873330  .00000643  00000-0  61637-4 0  9997,2 56797  70.0009  29.1260 0002929 275.8813  84.2012 14.98331603 64485,6950.188,96.107,574.089,570.017,0.0
56797.0,STARLINK-6058,PAYLOAD,2024-07-29 10:52:03,14.98329954,0.0002924,70.001,27.7796,276.9699,83.1128,3.1187e-05,2.79e-06,0.0,0 STARLINK-6058,1 56797U 23078AG  24211.45281554  .00000279  00000-0  31187-4 0  9990,2 56797  70.0010  27.7796 0002924 276.9699  83.1128 14.98329954 64565,6950.193,96.107,574.09,570.026,0.0
56797.0,STARLINK-6058,PAYLOAD,2024-07-29 20:28:51,14.98330943,0.0002919,70.0011,26.7697,277.1705,82.9122,3.856e-05,3.67e-06,0.0,0 STARLINK-6058,1 56797U 23078AG  24211.85337465  .00000367  00000-0  38560-4 0  9997,2 56797  70.0011  26.7697 0002919 277.1705  82.9122 14.98330943 64886,6950.19,96.107,574.084,570.026,0.0
56797.0,STARLINK-6058,PAYLOAD,2024-07-29 22:04:59,14.98331437,0.0002921,70.0012,26.6014,277.3285,82.7542,4.3692e-05,4.28e-06,0.0,0 STARLINK-6058,1 56797U 23078AG  24211.92013416  .00000428  00000-0  43692-4 0  9992,2 56797  70.0012  26.6014 0002921 277.3285  82.7542 14.98331437 64633,6950.188,96.107,574.084,570.023,0.0
56797.0,STARLINK-6058,PAYLOAD,2024-07-30 04:29:31,14.98330012,0.00029,70.0012,25.9276,275.955,84.1278,2.4249e-05,1.96e-06,0.0,0 STARLINK-6058,1 56797U 23078AG  24212.18717523  .00000196  00000-0  24249-4 0  9990,2 56797  70.0012  25.9276 0002900 275.9550  84.1278 14.98330012 64675,6950.193,96.107,574.073,570.042,0.0
56797.0,STARLINK-6058,PAYLOAD,2024-07-31 14:08:21,14.98327018,0.0002688,70.0016,22.3934,268.0159,92.0692,-2.961e-05,-4.46e-06,0.0,0 STARLINK-6058,1 56797U 23078AG  24213.58913727 -.00000446  00000-0 -29610-4 0  9996,2 56797  70.0016  22.3934 0002688 268.0159  92.0692 14.98327018 64885,6950.202,96.107,573.935,570.199,0.0
56797.0,STARLINK-6058,PAYLOAD,2024-07-31 20:32:53,14.98326249,0.0002826,70.0015,21.7208,264.9567,95.127,-4.4953e-05,-6.29e-06,0.0,0 STARLINK-6058,1 56797U 23078AG  24213.85617830 -.00000629  00000-0 -44953-4 0  9992,2 56797  70.0015  21.7208 0002826 264.9567  95.1270 14.98326249 65188,6950.204,96.107,574.034,570.105,0.0
56797.0,STARLINK-6058,PAYLOAD,2024-08-01 12:34:13,14.98334386,0.0003004,70.0011,20.0375,266.7412,93.3403,2.2711e-05,1.78e-06,0.0,0 STARLINK-6058,1 56797U 23078AG  24214.52377072  .00000178  00000-0  22711-4 0  9993,2 56797  70.0011  20.0375 0003004 266.7412  93.3403 14.98334386 65289,6950.179,96.107,574.132,569.956,0.0
56797.0,STARLINK-6058,PAYLOAD,2024-08-01 20:34:53,14.98334208,0.000299,70.0011,19.1957,266.7259,93.3558,0.00015218,1.723e-05,0.0,0 STARLINK-6058,1 56797U 23078AG  24214.85756518  .00001723  00000-0  15218-3 0  9995,2 56797  70.0011  19.1957 0002990 266.7259  93.3558 14.98334208 65077,6950.18,96.107,574.123,569.967,0.0
56797.0,STARLINK-6058,PAYLOAD,2024-08-02 12:36:15,14.98323579,0.0002998,70.001,17.5118,269.5577,90.5239,4.2108e-05,4.09e-06,0.0,0 STARLINK-6058,1 56797U 23078AG  24215.52517587  .00000409  00000-0  42108-4 0  9990,2 56797  70.0010  17.5118 0002998 269.5577  90.5239 14.98323579 65433,6950.213,96.107,574.161,569.994,0.0
56797.0,STARLINK-6058,PAYLOAD,2024-08-02 14:12:23,14.98322217,0.0002929,70.0011,17.3425,269.8331,90.2492,7.769e-06,0.0,0.0,0 STARLINK-6058,1 56797U 23078AG  24215.59193789  .00000000  00000-0  77690-5 0  9993,2 56797  70.0011  17.3425 0002929 269.8331  90.2492 14.98322217 65186,6950.217,96.107,574.118,570.046,0.0
56797.0,STARLINK-6058,PAYLOAD,2024-08-02 20:36:55,14.98326109,0.0003051,70.001,16.6703,269.6941,90.3868,1.4007e-05,7.4e-07,0.0,0 STARLINK-6058,1 56797U 23078AG  24215.85897595  .00000074  00000-0  14007-4 0  9991,2 56797  70.0010  16.6703 0003051 269.6941  90.3868 14.98326109 65225,6950.205,96.107,574.19,569.949,0.0
56797.0,STARLINK-6058,PAYLOAD,2024-08-03 12:38:15,14.98333835,0.0003052,70.0014,14.9865,270.3358,89.7452,1.5425e-05,9.1e-07,0.0,0 STARLINK-6058,1 56797U 23078AG  24216.52657098  .00000091  00000-0  15425-4 0  9992,2 56797  70.0014  14.9865 0003052 270.3358  89.7452 14.98333835 65585,6950.181,96.107,574.167,569.925,0.0
56797.0,STARLINK-6058,PAYLOAD,2024-08-03 14:14:23,14.98334005,0.000309,70.0011,14.8186,270.5384,89.5421,1.1343e-05,4.2e-07,0.0,0 STARLINK-6058,1 56797U 23078AG  24216.59333085  .00000042  00000-0  11343-4 0  9997,2 56797  70.0011  14.8186 0003090 270.5384  89.5421 14.98334005 65337,6950.181,96.107,574.193,569.898,0.0
56797.0,STARLINK-6058,PAYLOAD,2024-08-03 20:38:55,14.98341425,0.0003071,70.0012,14.1453,272.4347,87.6461,4.0309e-05,3.88e-06,0.0,0 STARLINK-6058,1 56797U 23078AG  24216.86036432  .00000388  00000-0  40309-4 0  9990,2 56797  70.0012  14.1453 0003071 272.4347  87.6461 14.98341425 65378,6950.158,96.106,574.157,569.888,0.0
56797.0,STARLINK-6058,PAYLOAD,2024-08-04 12:40:17,14.98320112,0.0003034,70.0016,12.4621,272.3604,87.7207,1.2427e-05,5.5e-07,0.0,0 STARLINK-6058,1 56797U 23078AG  24217.52797824  .00000055  00000-0  12427-4 0  9994,2 56797  70.0016  12.4621 0003034 272.3604  87.7207 14.98320112 65733,6950.223,96.108,574.197,569.98,0.0
56797.0,STARLINK-6058,PAYLOAD,2024-08-04 14:16:25,14.98321793,0.0002946,70.0017,12.2936,273.4376,86.6446,1.7019e-05,1.1e-06,0.0,0 STARLINK-6058,1 56797U 23078AG  24217.59473762  .00000110  00000-0  17019-4 0  9997,2 56797  70.0017  12.2936 0002946 273.4376  86.6446 14.98321793 65481,6950.218,96.108,574.131,570.036,0.0
56797.0,STARLINK-6058,PAYLOAD,2024-08-04 20:40:56,14.98334181,0.0003042,70.0011,11.6206,271.0855,88.9955,0.00011835,1.32e-05,0.0,0 STARLINK-6058,1 56797U 23078AG  24217.86176715  .00001320  00000-0  11835-3 0  9998,2 56797  70.0011  11.6206 0003042 271.0855  88.9955 14.98334181 65780,6950.18,96.107,574.159,569.931,0.0
56797.0,STARLINK-6058,PAYLOAD,2024-08-05 19:06:49,14.98339246,0.0002871,70.0016,9.265,267.8222,92.2608,3.2192e-05,2.91e-06,0.0,0 STARLINK-6058,1 56797U 23078AG  24218.79640415  .00000291  00000-0  32192-4 0  9990,2 56797  70.0016   9.2650 0002871 267.8222  92.2608 14.98339246 65668,6950.164,96.106,574.025,570.034,0.0
56797.0,STARLINK-6058,PAYLOAD,2024-08-06 12:44:19,14.98318904,0.0002408,70.004,7.418,236.0249,124.0681,-3.2046e-05,-4.75e-06,0.0,0 STARLINK-6058,1 56797U 23078AG  24219.53078022 -.00000475  00000-0 -32046-4 0  9996,2 56797  70.0040   7.4180 0002408 236.0249 124.0681 14.98318904 66031,6950.227,96.108,573.766,570.419,0.0
56797.0,STARLINK-6058,PAYLOAD,2024-08-06 14:20:27,14.98316984,0.0002473,70.0042,7.2485,244.336,115.7544,-2.6154e-05,-4.05e-06,0.0,0 STARLINK-6058,1 56797U 23078AG  24219.59754148 -.00000405  00000-0 -26154-4 0  9998,2 56797  70.0042   7.2485 0002473 244.3360 115.7544 14.98316984 65789,6950.233,96.108,573.817,570.379,0.0
56797.0,STARLINK-6058,PAYLOAD,2024-08-06 19:08:52,14.98318815,0.0003002,70.0017,6.7403,271.7649,88.3166,-9.6097e-05,-1.239e-05,0.0,0 STARLINK-6058,1 56797U 23078AG  24219.79782413 -.00001239  00000-0 -96097-4 0  9995,2 56797  70.0017   6.7403 0003002 271.7649  88.3166 14.98318815 65812,6950.227,96.108,574.179,570.006,0.0
56797.0,STARLINK-6058,PAYLOAD,2024-08-07 12:46:19,14.98332689,0.0003143,70.0017,4.8884,272.2713,87.8086,3.7033e-05,3.49e-06,0.0,0 STARLINK-6058,1 56797U 23078AG  24220.53217313  .00000349  00000-0  37033-4 0  9995,2 56797  70.0017   4.8884 0003143 272.2713  87.8086 14.98332689 66189,6950.185,96.107,574.234,569.865,0.0
56797.0,STARLINK-6058,PAYLOAD,2024-08-07 19:10:51,14.98345405,0.000312,70.0017,4.2152,271.546,88.5341,0.00011902,1.328e-05,0.0,0 STARLINK-6058,1 56797U 23078AG  24220.79920168  .00001328  00000-0  11902-3 0  9996,2 56797  70.0017   4.2152 0003120 271.5460  88.5341 14.98345405 66224,6950.145,96.106,574.179,569.842,0.0
56797.0,STARLINK-6058,PAYLOAD,2024-08-08 12:48:20,14.98324178,0.0003285,70.0011,2.3629,271.0713,89.007,0.00011068,1.228e-05,0.0,0 STARLINK-6058,1 56797U 23078AG  24221.53357630  .00001228  00000-0  11068-3 0  9999,2 56797  70.0011   2.3629 0003285 271.0713  89.0070 14.98324178 66076,6950.211,96.107,574.359,569.793,0.0
56797.0,STARLINK-6058,PAYLOAD,2024-08-08 19:12:53,14.98322447,0.0002888,70.0035,1.6931,264.4349,95.6481,0.00020258,2.325e-05,0.0,0 STARLINK-6058,1 56797U 23078AG  24221.80061582  .00002325  00000-0  20258-3 0  9997,2 56797  70.0035   1.6931 0002888 264.4349  95.6481 14.98322447 66378,6950.216,96.107,574.088,570.074,0.0
56797.0,STARLINK-6058,PAYLOAD,2024-08-09 12:50:21,14.9833808,0.000295,70.0024,359.8386,269.1775,90.9046,3.2928e-06,-5.4e-07,0.0,0 STARLINK-6058,1 56797U 23078AG  24222.53496990 -.00000054  00000-0  32928-5 0  9990,2 56797  70.0024 359.8386 0002950 269.1775  90.9046 14.98338080 66480,6950.168,96.106,574.083,569.983,0.0
56797.0,STARLINK-6058,PAYLOAD,2024-08-09 19:14:52,14.98349213,0.0002934,70.0024,359.1649,267.3173,92.765,7.6632e-05,8.22e-06,0.0,0 STARLINK-6058,1 56797U 23078AG  24222.80199841  .00000822  00000-0  76632-4 0  9996,2 56797  70.0024 359.1649 0002934 267.3173  92.7650 14.98349213 66525,6950.133,96.106,574.038,569.959,0.0
